[{"OBJECT_NAME":"STARLINK-31633","OBJECT_ID":"2024-057M","EPOCH":"2026-03-09T09:45:49.015584","MEAN_MOTION":15.27573898,"ECCENTRICITY":0.00021075,"INCLINATION":43.0019,"RA_OF_ASC_NODE":188.8547,"ARG_OF_PERICENTER":277.048,"MEAN_ANOMALY":83.0132,"EPHEMERIS_TYPE":0,"CLASSIFICATION_TYPE":"U","NORAD_CAT_ID":59331,"ELEMENT_SET_NO":999,"REV_AT_EPOCH":10979,"BSTAR":-2.3067076e-5,"MEAN_MOTION_DOT":-8.97e-6,"MEAN_MOTION_DDOT":0},{"OBJECT_NAME":"GESAT GEN1","OBJECT_ID":"2025-009D","EPOCH":"2026-03-09T17:26:20.087232","MEAN_MOTION":15.26847505,"ECCENTRICITY":8.879e-5,"INCLINATION":97.4058,"RA_OF_ASC_NODE":151.4598,"ARG_OF_PERICENTER":98.3547,"MEAN_ANOMALY":261.7793,"EPHEMERIS_TYPE":0,"CLASSIFICATION_TYPE":"U","NORAD_CAT_ID":62612,"ELEMENT_SET_NO":999,"REV_AT_EPOCH":6373,"BSTAR":0.00038326131,"MEAN_MOTION_DOT":0.00010041,"MEAN_MOTION_DDOT":0}]
