STARLINK-31633          
1 59331U 24057M   26068.40681731 -.00000897  00000+0 -23067-4 0  9998
2 59331  43.0019 188.8547 0002107 277.0480  83.0132 15.27573898109797
GESAT GEN1              
1 62612U 25009D   26068.72662138  .00010041  00000+0  38326-3 0  9990
2 62612  97.4058 151.4598 0000888  98.3547 261.7793 15.26847505 63732
